1 40380U 15003E   15358.13635844  .00004682  00000-0  23464-3 0  9992
2 40380  99.0999  66.2700 0155342 353.2147   6.6971 15.08064333 49148
